[{"OBJECT_NAME":"STARLINK-35059","OBJECT_ID":"2025-194W","EPOCH":"2026-03-09T13:12:20.699712","MEAN_MOTION":15.01263903,"ECCENTRICITY":0.00018888,"INCLINATION":97.6037,"RA_OF_ASC_NODE":284.8767,"ARG_OF_PERICENTER":81.8838,"MEAN_ANOMALY":278.2601,"EPHEMERIS_TYPE":0,"CLASSIFICATION_TYPE":"U","NORAD_CAT_ID":65454,"ELEMENT_SET_NO":999,"REV_AT_EPOCH":2966,"BSTAR":0.00029003443,"MEAN_MOTION_DOT":3.669e-5,"MEAN_MOTION_DDOT":0},{"OBJECT_NAME":"ELECTRON KICK STAGE R\/B","OBJECT_ID":"2025-229C","EPOCH":"2026-03-09T11:01:34.584384","MEAN_MOTION":15.04670102,"ECCENTRICITY":0.00392514,"INCLINATION":41.9818,"RA_OF_ASC_NODE":119.4948,"ARG_OF_PERICENTER":118.9737,"MEAN_ANOMALY":241.5033,"EPHEMERIS_TYPE":0,"CLASSIFICATION_TYPE":"U","NORAD_CAT_ID":65973,"ELEMENT_SET_NO":999,"REV_AT_EPOCH":2194,"BSTAR":0.00045211532,"MEAN_MOTION_DOT":6.384e-5,"MEAN_MOTION_DDOT":0}]
